NORAD_CAT_ID,OBJECT_NAME,OBJECT_TYPE,EPOCH,MEAN_MOTION,ECCENTRICITY,INCLINATION,RA_OF_ASC_NODE,ARG_OF_PERICENTER,MEAN_ANOMALY,BSTAR,MEAN_MOTION_DOT,MEAN_MOTION_DDOT,TLE_LINE0,TLE_LINE1,TLE_LINE2,SEMIMAJOR_AXIS,PERIOD,APOGEE,PERIGEE,DECAYED
49156.0,STARLINK-3085,PAYLOAD,2022-07-19 20:49:14,14.9671378,0.0003123,70.0004,4.3774,267.3677,92.7124,1.7413e-05,1.08e-06,0.0,0 STARLINK-3085,1 49156U 21082AC  22200.86753023  .00000108  00000-0  17413-4 0  9997,2 49156  70.0004   4.3774 0003123 267.3677  92.7124 14.96713780 49015,6955.195,96.211,579.2330000000002,574.888,0.0
49156.0,STARLINK-3085,PAYLOAD,2022-07-20 09:39:08,14.96719667,0.0003125,70.0002,3.0328,267.3376,92.7424,4.119e-05,3.8e-06,0.0,0 STARLINK-3085,1 49156U 21082AC  22201.40218103  .00000380  00000-0  41190-4 0  9994,2 49156  70.0002   3.0328 0003125 267.3376  92.7424 14.96719667 49093,6955.177,96.21,579.216,574.869,0.0
49156.0,STARLINK-3085,PAYLOAD,2022-07-20 14:27:51,14.96721813,0.0003134,70.0003,2.5285,267.3811,92.6988,3.4635e-05,3.05e-06,0.0,0 STARLINK-3085,1 49156U 21082AC  22201.60267497  .00000305  00000-0  34635-4 0  9999,2 49156  70.0003   2.5285 0003134 267.3811  92.6988 14.96721813 49128,6955.170999999999,96.21,579.215,574.856,0.0
49156.0,STARLINK-3085,PAYLOAD,2022-07-20 20:52:48,14.96715437,0.0003441999999999,70.0003,1.8548,265.782,94.2945,-8.3856e-05,-1.051e-05,0.0,0 STARLINK-3085,1 49156U 21082AC  22201.87000705 -.00001051  00000-0 -83856-4 0  9995,2 49156  70.0003   1.8548 0003442 265.7820  94.2945 14.96715437 49166,6955.19,96.211,579.4490000000002,574.661,0.0
49156.0,STARLINK-3085,PAYLOAD,2022-07-21 11:18:57,14.96706511,0.0003143999999999,69.9999,0.3439,269.6626,90.4172,-5.7768e-05,-7.53e-06,0.0,0 STARLINK-3085,1 49156U 21082AC  22202.47150175 -.00000753  00000-0 -57768-4 0  9990,2 49156  69.9999   0.3439 0003144 269.6626  90.4172 14.96706511 49259,6955.218000000003,96.211,579.27,574.896,0.0
49156.0,STARLINK-3085,PAYLOAD,2022-07-21 17:43:54,14.96707611,0.0002989,70.0002,359.6704,265.9965,94.0852,-6.1919000000000025e-06,-1.62e-06,0.0,0 STARLINK-3085,1 49156U 21082AC  22202.73882861 -.00000162  00000-0 -61919-5 0  9991,2 49156  70.0002 359.6704 0002989 265.9965  94.0852 14.96707611 49294,6955.215,96.211,579.158,575.001,0.0
49156.0,STARLINK-3085,PAYLOAD,2022-07-21 22:32:37,14.96711622,0.0003013999999999,70.0005,359.1664,268.2062,91.8751,3.095e-05,2.63e-06,0.0,0 STARLINK-3085,1 49156U 21082AC  22202.93932188  .00000263  00000-0  30950-4 0  9991,2 49156  70.0005 359.1664 0003014 268.2062  91.8751 14.96711622 49325,6955.2019999999975,96.211,579.163,574.971,0.0
49156.0,STARLINK-3085,PAYLOAD,2022-07-22 03:21:20,14.96714173,0.0002995,70.0005,358.6622,267.513,92.5685,1.2455e-05,5.1e-07,0.0,0 STARLINK-3085,1 49156U 21082AC  22203.13981711  .00000051  00000-0  12455-4 0  9995,2 49156  70.0005 358.6622 0002995 267.5130  92.5685 14.96714173 49359,6955.194,96.211,579.1419999999998,574.976,0.0
49156.0,STARLINK-3085,PAYLOAD,2022-07-22 16:11:14,14.96720128,0.0002969,70.0006,357.3176,267.1025,92.9793,1.7198e-05,1.05e-06,0.0,0 STARLINK-3085,1 49156U 21082AC  22203.67446874  .00000105  00000-0  17198-4 0  9999,2 49156  70.0006 357.3176 0002969 267.1025  92.9793 14.96720128 49430,6955.176,96.21,579.106,574.976,0.0
49156.0,STARLINK-3085,PAYLOAD,2022-07-23 13:02:19,14.96721445,0.0002993,70.0005,355.1325,266.4968,93.5848,0.00014624,1.583e-05,0.0,0 STARLINK-3085,1 49156U 21082AC  22204.54327824  .00001583  00000-0  14624-3 0  9990,2 49156  70.0005 355.1325 0002993 266.4968  93.5848 14.96721445 49561,6955.172,96.21,579.118,574.955,0.0
49156.0,STARLINK-3085,PAYLOAD,2022-07-23 19:27:17,14.96711061,0.0003113,70.0005,354.4603,265.9312,94.149,1.3779e-05,6.6e-07,0.0,0 STARLINK-3085,1 49156U 21082AC  22204.81061592  .00000066  00000-0  13779-4 0  9993,2 49156  70.0005 354.4603 0003113 265.9312  94.1490 14.96711061 49602,6955.204000000002,96.211,579.234,574.904,0.0
49156.0,STARLINK-3085,PAYLOAD,2022-07-24 13:05:54,14.96715557,0.0003125,70.0006,352.6114,266.2809,93.7992,-1.2722e-05,-2.37e-06,0.0,0 STARLINK-3085,1 49156U 21082AC  22205.54576566 -.00000237  00000-0 -12722-4 0  9995,2 49156  70.0006 352.6114 0003125 266.2809  93.7992 14.96715557 49716,6955.19,96.211,579.2280000000002,574.881,0.0
49156.0,STARLINK-3085,PAYLOAD,2022-07-24 19:30:50,14.96719468,0.0003151999999999,70.0006,351.9389,266.3706,93.7092,3.464e-06,-5.2e-07,0.0,0 STARLINK-3085,1 49156U 21082AC  22205.81309011 -.00000052  00000-0  34640-5 0  9992,2 49156  70.0006 351.9389 0003152 266.3706  93.7092 14.96719468 49759,6955.178000000001,96.21,579.235,574.851,0.0
49156.0,STARLINK-3085,PAYLOAD,2022-07-25 09:57:00,14.9671146,0.0003045,70.0012,350.4267,265.7157,94.3654,-0.0001355,-1.642e-05,0.0,0 STARLINK-3085,1 49156U 21082AC  22206.41458623 -.00001642  00000-0 -13550-3 0  9995,2 49156  70.0012 350.4267 0003045 265.7157  94.3654 14.96711460 49844,6955.203,96.211,579.185,574.95,0.0
49156.0,STARLINK-3085,PAYLOAD,2022-07-25 16:21:57,14.96711345,0.0003061999999999,70.0009,349.7541,266.7759,93.3049,-0.00017755,-2.123e-05,0.0,0 STARLINK-3085,1 49156U 21082AC  22206.68191605 -.00002123  00000-0 -17755-3 0  9994,2 49156  70.0009 349.7541 0003062 266.7759  93.3049 14.96711345 49887,6955.203,96.211,579.198,574.938,0.0
49156.0,STARLINK-3085,PAYLOAD,2022-07-26 10:00:34,14.96707892,0.0003078999999999,70.0008,347.9051,266.4213,93.6594,-5.259e-05,-6.93e-06,0.0,0 STARLINK-3085,1 49156U 21082AC  22207.41707097 -.00000693  00000-0 -52590-4 0  9991,2 49156  70.0008 347.9051 0003079 266.4213  93.6594 14.96707892 49994,6955.214,96.211,579.22,574.937,0.0
49156.0,STARLINK-3085,PAYLOAD,2022-07-26 13:13:03,14.96708036,0.0003078,70.0008,347.569,266.4223,93.6583,-4.8647e-05,-6.48e-06,0.0,0 STARLINK-3085,1 49156U 21082AC  22207.55073538 -.00000648  00000-0 -48647-4 0  9990,2 49156  70.0008 347.5690 0003078 266.4223  93.6583 14.96708036 50013,6955.2130000000025,96.211,579.219,574.937,0.0
49156.0,STARLINK-3085,PAYLOAD,2022-07-26 19:38:00,14.96709371,0.0003018,70.0011,346.8973,265.6511,94.4302,-3.4579e-05,-4.87e-06,0.0,0 STARLINK-3085,1 49156U 21082AC  22207.81806337 -.00000487  00000-0 -34579-4 0  9990,2 49156  70.0011 346.8973 0003018 265.6511  94.4302 14.96709371 50053,6955.209,96.211,579.173,574.975,0.0
49156.0,STARLINK-3085,PAYLOAD,2022-07-27 11:40:23,14.96707027,0.0003055,70.0009,345.2161,266.5096,93.5713,0.00010325,1.09e-05,0.0,0 STARLINK-3085,1 49156U 21082AC  22208.48638354  .00001090  00000-0  10325-3 0  9997,2 49156  70.0009 345.2161 0003055 266.5096  93.5713 14.96707027 50154,6955.215999999999,96.211,579.206,574.957,0.0
49156.0,STARLINK-3085,PAYLOAD,2022-07-27 18:05:20,14.96708944,0.0003066,70.0009,344.5437,267.399,92.6818,0.00010262,1.083e-05,0.0,0 STARLINK-3085,1 49156U 21082AC  22208.75371170  .00001083  00000-0  10262-3 0  9999,2 49156  70.0009 344.5437 0003066 267.3990  92.6818 14.96708944 50195,6955.21,96.211,579.2080000000002,574.943,0.0
49156.0,STARLINK-3085,PAYLOAD,2022-07-28 10:07:43,14.96716214,0.0003097,70.0009,342.86300000000006,266.1518,93.9286,8.977200000000001e-05,9.36e-06,0.0,0 STARLINK-3085,1 49156U 21082AC  22209.42202874  .00000936  00000-0  89772-4 0  9997,2 49156  70.0009 342.8630 0003097 266.1518  93.9286 14.96716214 50291,6955.188,96.211,579.207,574.899,0.0
49156.0,STARLINK-3085,PAYLOAD,2022-07-28 18:08:54,14.96717787,0.0003091,70.001,342.0228,265.5424,94.5381,9.8497e-05,1.036e-05,0.0,0 STARLINK-3085,1 49156U 21082AC  22209.75618711  .00001036  00000-0  98497-4 0  9990,2 49156  70.0010 342.0228 0003091 265.5424  94.5381 14.96717787 50346,6955.183000000001,96.211,579.198,574.898,0.0
49156.0,STARLINK-3085,PAYLOAD,2022-07-29 08:35:02,14.96722772,0.000309,70.0011,340.5102,265.3738,94.7067,9.5568e-05,1.003e-05,0.0,0 STARLINK-3085,1 49156U 21082AC  22210.35766996  .00001003  00000-0  95568-4 0  9997,2 49156  70.0011 340.5102 0003090 265.3738  94.7067 14.96722772 50439,6955.168000000002,96.21,579.182,574.883,0.0
49156.0,STARLINK-3085,PAYLOAD,2022-07-29 14:59:59,14.96724862,0.0003101,70.0011,339.8379,265.2891,94.7913,9.9914e-05,1.052e-05,0.0,0 STARLINK-3085,1 49156U 21082AC  22210.62499495  .00001052  00000-0  99914-4 0  9997,2 49156  70.0011 339.8379 0003101 265.2891  94.7913 14.96724862 50474,6955.161,96.21,579.183,574.869,0.0
49156.0,STARLINK-3085,PAYLOAD,2022-07-30 02:13:40,14.96711689,0.0003129999999999,70.001,338.6612,265.7517,94.3284,-7.8435e-05,-9.89e-06,0.0,0 STARLINK-3085,1 49156U 21082AC  22211.09283017 -.00000989  00000-0 -78435-4 0  9995,2 49156  70.0010 338.6612 0003130 265.7517  94.3284 14.96711689 50540,6955.2019999999975,96.211,579.244,574.89,0.0
49156.0,STARLINK-3085,PAYLOAD,2022-07-30 18:16:03,14.96713279,0.0002832,70.0011,336.9790000000001,259.8893,100.1946,-9.8861e-05,-1.223e-05,0.0,0 STARLINK-3085,1 49156U 21082AC  22211.76114929 -.00001223  00000-0 -98861-4 0  9991,2 49156  70.0011 336.9790 0002832 259.8893 100.1946 14.96713279 50647,6955.196999999999,96.211,579.0319999999998,575.092,0.0
49156.0,STARLINK-3085,PAYLOAD,2022-07-31 02:17:14,14.96717573,0.0003226,70.0011,336.1398,265.6116,94.4674,-5.9929e-05,-7.78e-06,0.0,0 STARLINK-3085,1 49156U 21082AC  22212.09530492 -.00000778  00000-0 -59929-4 0  9991,2 49156  70.0011 336.1398 0003226 265.6116  94.4674 14.96717573 50693,6955.184,96.211,579.2919999999998,574.805,0.0
49156.0,STARLINK-3085,PAYLOAD,2022-07-31 15:07:08,14.96719614,0.0003266999999999,70.001,334.7953,265.1682,94.9103,-6.263199999999999e-05,-8.08e-06,0.0,0 STARLINK-3085,1 49156U 21082AC  22212.62995823 -.00000808  00000-0 -62632-4 0  9992,2 49156  70.0010 334.7953 0003267 265.1682  94.9103 14.96719614 50770,6955.177,96.21,579.315,574.77,0.0
49156.0,STARLINK-3085,PAYLOAD,2022-07-31 18:19:36,14.96720014,0.0003263,70.001,334.4591,265.3382,94.7404,-5.3746e-05,-7.07e-06,0.0,0 STARLINK-3085,1 49156U 21082AC  22212.76362152 -.00000707  00000-0 -53746-4 0  9994,2 49156  70.0010 334.4591 0003263 265.3382  94.7404 14.96720014 50790,6955.176,96.21,579.311,574.7719999999998,0.0
